{"type": "FeatureCollection", "features": [{"type": "Feature", "properties": {"norad_id": 28054, "name": "DMSP 5D-3 F16 (USA 172)", "group": "weather", "lat": -17.23079403782791, "lon": 175.37591005462605, "alt_km": 852.9705306519345, "timestamp": "2025-12-06T18:50:09.813746+00:00", "meta": {"OBJECT_NAME": "DMSP 5D-3 F16 (USA 172)", "OBJECT_ID": "2003-048A", "EPOCH": "2025-12-06T07:46:05.818944", "MEAN_MOTION": 14.14420814, "ECCENTRICITY": 0.00067558, "INCLINATION": 99.005, "RA_OF_ASC_NODE": 357.7301, "ARG_OF_PERICENTER": 340.6006, "MEAN_ANOMALY": 29.9152, "EPHEMERIS_TYPE": 0, "CLASSIFICATION_TYPE": "U", "NORAD_CAT_ID": 28054, "ELEMENT_SET_NO": 999, "REV_AT_EPOCH": 14222, "BSTAR": 0.00017703518, "MEAN_MOTION_DOT": 2.93e-06, "MEAN_MOTION_DDOT": 0}, "tle": {"line1": "1 28054U 03048A   25340.32367846  .00000293  00000+0  17704-3 0  9992", "line2": "2 28054  99.0050 357.7301 0006755 340.6006  29.9152 14.14420814142220"}}, "geometry": {"type": "Point", "coordinates": [175.37591005462605, -17.23079403782791]}}, {"type": "Feature", "properties": {"norad_id": 28912, "name": "METEOSAT-9 (MSG-2)", "group": "weather", "lat": -1.8391825618541435, "lon": 44.12232093399695, "alt_km": 35801.95651521895, "timestamp": "2025-12-06T18:50:09.813795+00:00", "meta": {"OBJECT_NAME": "METEOSAT-9 (MSG-2)", "OBJECT_ID": "2005-049B", "EPOCH": "2025-12-05T20:45:39.436128", "MEAN_MOTION": 1.00272635, "ECCENTRICITY": 0.00040045, "INCLINATION": 8.9234, "RA_OF_ASC_NODE": 56.0387, "ARG_OF_PERICENTER": 187.5839, "MEAN_ANOMALY": 188.3106, "EPHEMERIS_TYPE": 0, "CLASSIFICATION_TYPE": "U", "NORAD_CAT_ID": 28912, "ELEMENT_SET_NO": 999, "REV_AT_EPOCH": 506, "BSTAR": 0, "MEAN_MOTION_DOT": 1.28e-06, "MEAN_MOTION_DDOT": 0}, "tle": {"line1": "1 28912U 05049B   25339.86503977  .00000128  00000+0  00000+0 0  9996", "line2": "2 28912   8.9234  56.0387 0004004 187.5839 188.3106  1.00272635  5062"}}, "geometry": {"type": "Point", "coordinates": [44.12232093399695, -1.8391825618541435]}}, {"type": "Feature", "properties": {"norad_id": 29522, "name": "DMSP 5D-3 F17 (USA 191)", "group": "weather", "lat": 51.86191069501915, "lon": 177.5955600137534, "alt_km": 840.6747584561081, "timestamp": "2025-12-06T18:50:09.813818+00:00", "meta": {"OBJECT_NAME": "DMSP 5D-3 F17 (USA 191)", "OBJECT_ID": "2006-050A", "EPOCH": "2025-12-06T06:21:21.115872", "MEAN_MOTION": 14.14915489, "ECCENTRICITY": 0.00092203, "INCLINATION": 98.7393, "RA_OF_ASC_NODE": 345.7887, "ARG_OF_PERICENTER": 244.9129, "MEAN_ANOMALY": 115.1088, "EPHEMERIS_TYPE": 0, "CLASSIFICATION_TYPE": "U", "NORAD_CAT_ID": 29522, "ELEMENT_SET_NO": 999, "REV_AT_EPOCH": 98513, "BSTAR": 0.00020563635, "MEAN_MOTION_DOT": 3.54e-06, "MEAN_MOTION_DDOT": 0}, "tle": {"line1": "1 29522U 06050A   25340.26482773  .00000354  00000+0  20564-3 0  9995", "line2": "2 29522  98.7393 345.7887 0009220 244.9129 115.1088 14.14915489985133"}}, "geometry": {"type": "Point", "coordinates": [177.5955600137534, 51.86191069501915]}}, {"type": "Feature", "properties": {"norad_id": 32958, "name": "FENGYUN 3A", "group": "weather", "lat": 74.36691382021421, "lon": 133.47478405019936, "alt_km": 823.9951960486706, "timestamp": "2025-12-06T18:50:09.813831+00:00", "meta": {"OBJECT_NAME": "FENGYUN 3A", "OBJECT_ID": "2008-026A", "EPOCH": "2025-12-06T03:07:38.886816", "MEAN_MOTION": 14.19511263, "ECCENTRICITY": 0.00082177, "INCLINATION": 98.6687, "RA_OF_ASC_NODE": 279.7965, "ARG_OF_PERICENTER": 330.9356, "MEAN_ANOMALY": 29.1362, "EPHEMERIS_TYPE": 0, "CLASSIFICATION_TYPE": "U", "NORAD_CAT_ID": 32958, "ELEMENT_SET_NO": 999, "REV_AT_EPOCH": 90801, "BSTAR": 0.00012864534, "MEAN_MOTION_DOT": 2.28e-06, "MEAN_MOTION_DDOT": 0}, "tle": {"line1": "1 32958U 08026A   25340.13031119  .00000228  00000+0  12865-3 0  9992", "line2": "2 32958  98.6687 279.7965 0008217 330.9356  29.1362 14.19511263908019"}}, "geometry": {"type": "Point", "coordinates": [133.47478405019936, 74.36691382021421]}}, {"type": "Feature", "properties": {"norad_id": 35491, "name": "GOES 14", "group": "weather", "lat": 0.2887414108718882, "lon": -109.95364348270886, "alt_km": 35768.38159281522, "timestamp": "2025-12-06T18:50:09.813845+00:00", "meta": {"OBJECT_NAME": "GOES 14", "OBJECT_ID": "2009-033A", "EPOCH": "2025-12-06T07:46:41.533248", "MEAN_MOTION": 1.00272844, "ECCENTRICITY": 0.00041817, "INCLINATION": 1.1818, "RA_OF_ASC_NODE": 85.4843, "ARG_OF_PERICENTER": 153.1267, "MEAN_ANOMALY": 205.1076, "EPHEMERIS_TYPE": 0, "CLASSIFICATION_TYPE": "U", "NORAD_CAT_ID": 35491, "ELEMENT_SET_NO": 999, "REV_AT_EPOCH": 465, "BSTAR": 0, "MEAN_MOTION_DOT": -6.1e-07, "MEAN_MOTION_DDOT": 0}, "tle": {"line1": "1 35491U 09033A   25340.32409182 -.00000061  00000+0  00000+0 0  9996", "line2": "2 35491   1.1818  85.4843 0004181 153.1267 205.1076  1.00272844  4658"}}, "geometry": {"type": "Point", "coordinates": [-109.95364348270886, 0.2887414108718882]}}, {"type": "Feature", "properties": {"norad_id": 35951, "name": "DMSP 5D-3 F18 (USA 210)", "group": "weather", "lat": -2.36287994321401, "lon": -42.41469206890038, "alt_km": 844.8466137349533, "timestamp": "2025-12-06T18:50:09.813857+00:00", "meta": {"OBJECT_NAME": "DMSP 5D-3 F18 (USA 210)", "OBJECT_ID": "2009-057A", "EPOCH": "2025-12-06T05:16:06.901248", "MEAN_MOTION": 14.14763128, "ECCENTRICITY": 0.00121209, "INCLINATION": 98.8826, "RA_OF_ASC_NODE": 316.6532, "ARG_OF_PERICENTER": 79.7012, "MEAN_ANOMALY": 280.5527, "EPHEMERIS_TYPE": 0, "CLASSIFICATION_TYPE": "U", "NORAD_CAT_ID": 35951, "ELEMENT_SET_NO": 999, "REV_AT_EPOCH": 83230, "BSTAR": 0.00023730606, "MEAN_MOTION_DOT": 4.13e-06, "MEAN_MOTION_DDOT": 0}, "tle": {"line1": "1 35951U 09057A   25340.21952432  .00000413  00000+0  23731-3 0  9992", "line2": "2 35951  98.8826 316.6532 0012120  79.7012 280.5527 14.14763128832306"}}, "geometry": {"type": "Point", "coordinates": [-42.41469206890038, -2.36287994321401]}}, {"type": "Feature", "properties": {"norad_id": 36411, "name": "EWS-G2 (GOES 15)", "group": "weather", "lat": -0.3264352135902747, "lon": 59.8360665677334, "alt_km": 35811.410865247075, "timestamp": "2025-12-06T18:50:09.813870+00:00", "meta": {"OBJECT_NAME": "EWS-G2 (GOES 15)", "OBJECT_ID": "2010-008A", "EPOCH": "2025-12-05T21:34:38.508384", "MEAN_MOTION": 1.00268214, "ECCENTRICITY": 0.000603, "INCLINATION": 0.7962, "RA_OF_ASC_NODE": 86.0409, "ARG_OF_PERICENTER": 171.4967, "MEAN_ANOMALY": 202.5422, "EPHEMERIS_TYPE": 0, "CLASSIFICATION_TYPE": "U", "NORAD_CAT_ID": 36411, "ELEMENT_SET_NO": 999, "REV_AT_EPOCH": 5770, "BSTAR": 0, "MEAN_MOTION_DOT": 4.7e-07, "MEAN_MOTION_DDOT": 0}, "tle": {"line1": "1 36411U 10008A   25339.89905681  .00000047  00000+0  00000+0 0  9991", "line2": "2 36411   0.7962  86.0409 0006030 171.4967 202.5422  1.00268214 57702"}}, "geometry": {"type": "Point", "coordinates": [59.8360665677334, -0.3264352135902747]}}, {"type": "Feature", "properties": {"norad_id": 36744, "name": "COMS 1", "group": "weather", "lat": 3.2525963936187634, "lon": 126.43720529319457, "alt_km": 35789.639432512144, "timestamp": "2025-12-06T18:50:09.813884+00:00", "meta": {"OBJECT_NAME": "COMS 1", "OBJECT_ID": "2010-032A", "EPOCH": "2025-12-06T06:07:51.786336", "MEAN_MOTION": 1.00271567, "ECCENTRICITY": 0.00011756, "INCLINATION": 4.3249, "RA_OF_ASC_NODE": 78.0702, "ARG_OF_PERICENTER": 188.9834, "MEAN_ANOMALY": 28.3819, "EPHEMERIS_TYPE": 0, "CLASSIFICATION_TYPE": "U", "NORAD_CAT_ID": 36744, "ELEMENT_SET_NO": 999, "REV_AT_EPOCH": 4915, "BSTAR": 0, "MEAN_MOTION_DOT": -3.38e-06, "MEAN_MOTION_DDOT": 0}, "tle": {"line1": "1 36744U 10032A   25340.25546049 -.00000338  00000+0  00000+0 0  9992", "line2": "2 36744   4.3249  78.0702 0001175 188.9834  28.3819  1.00271567 49156"}}, "geometry": {"type": "Point", "coordinates": [126.43720529319457, 3.2525963936187634]}}, {"type": "Feature", "properties": {"norad_id": 37214, "name": "FENGYUN 3B", "group": "weather", "lat": -37.85081932244697, "lon": 27.788293015038466, "alt_km": 839.6391722850076, "timestamp": "2025-12-06T18:50:09.813896+00:00", "meta": {"OBJECT_NAME": "FENGYUN 3B", "OBJECT_ID": "2010-059A", "EPOCH": "2025-12-06T07:25:16.629600", "MEAN_MOTION": 14.1478709, "ECCENTRICITY": 0.0022309, "INCLINATION": 98.9918, "RA_OF_ASC_NODE": 20.2415, "ARG_OF_PERICENTER": 15.9448, "MEAN_ANOMALY": 44.8746, "EPHEMERIS_TYPE": 0, "CLASSIFICATION_TYPE": "U", "NORAD_CAT_ID": 37214, "ELEMENT_SET_NO": 999, "REV_AT_EPOCH": 78015, "BSTAR": 0.00013494726, "MEAN_MOTION_DOT": 2.15e-06, "MEAN_MOTION_DDOT": 0}, "tle": {"line1": "1 37214U 10059A   25340.30922025  .00000215  00000+0  13495-3 0  9991", "line2": "2 37214  98.9918  20.2415 0022309  15.9448  44.8746 14.14787090780159"}}, "geometry": {"type": "Point", "coordinates": [27.788293015038466, -37.85081932244697]}}, {"type": "Feature", "properties": {"norad_id": 37849, "name": "SUOMI NPP", "group": "weather", "lat": 60.36061889364779, "lon": -97.57356114202629, "alt_km": 820.5743870477163, "timestamp": "2025-12-06T18:50:09.813908+00:00", "meta": {"OBJECT_NAME": "SUOMI NPP", "OBJECT_ID": "2011-061A", "EPOCH": "2025-12-06T06:42:19.005696", "MEAN_MOTION": 14.19511444, "ECCENTRICITY": 0.00020201, "INCLINATION": 98.7763, "RA_OF_ASC_NODE": 277.6795, "ARG_OF_PERICENTER": 131.5492, "MEAN_ANOMALY": 228.5857, "EPHEMERIS_TYPE": 0, "CLASSIFICATION_TYPE": "U", "NORAD_CAT_ID": 37849, "ELEMENT_SET_NO": 999, "REV_AT_EPOCH": 73107, "BSTAR": 0.0001278621, "MEAN_MOTION_DOT": 2.25e-06, "MEAN_MOTION_DDOT": 0}, "tle": {"line1": "1 37849U 11061A   25340.27938664  .00000225  00000+0  12786-3 0  9994", "line2": "2 37849  98.7763 277.6795 0002020 131.5492 228.5857 14.19511444731074"}}, "geometry": {"type": "Point", "coordinates": [-97.57356114202629, 60.36061889364779]}}]}